ESTCUBE 1               
1 39161U 13021C   22058.15925800  .00000619  00000+0  10461-3 0  9994
2 39161  97.9175 138.2508 0010717  58.7567 301.4695 14.72697602473232
FENGYUN 3C              
1 39260U 13052A   22058.24372431  .00000043  00000+0  42990-4 0  9998
2 39260  98.4687  91.8648 0010201 228.0828 131.9483 14.15901701436320
CASSIOPE                
1 39265U 13055A   22058.16905807  .00008453  00000+0  23278-3 0  9996
2 39265  80.9679  24.0399 0632799 284.4789  68.7025 14.35912493436474
ZACUBE-1 (TSHEPISOSAT)  
1 39417U 13066B   22057.91634572  .00001109  00000+0  14239-3 0  9995
2 39417  97.6239  34.5224 0059482  48.0543 312.5718 14.81874290446751
CINEMA-3 (KHUSAT-2)     
1 39426U 13066L   22057.80973874  .00000455  00000+0  78331-4 0  9991
2 39426  97.7880   2.6443 0102546 229.8279 129.3916 14.69901400443018
TRITON-1                
1 39427U 13066M   22058.10659398  .00000647  00000+0  10990-3 0  9997
2 39427  97.8043 358.7982 0111182 257.2433 101.6328 14.68574564442775
DELFI-N3XT              
1 39428U 13066N   22057.82781116  .00001449  00000+0  23338-3 0  9991
2 39428  97.8065 357.0550 0117221 271.5992  87.1790 14.68549671442291
GOMX-1                  
1 39430U 13066Q   22058.04859045  .00000923  00000+0  17333-3 0  9990
2 39430  97.8153 331.5422 0150991  33.2899 327.7690 14.59877016440182
BRITE-PL1 (LEM)         
1 39431U 13066R   22057.61651551  .00000202  00000+0  53277-4 0  9993
2 39431  97.7168 281.0801 0201041 211.7301 147.1650 14.47243748436330
ICUBE-1                 
1 39432U 13066S   22058.03151038  .00001382  00000+0  14271-3 0  9996
2 39432  97.4700  67.5794 0029837 273.5350  86.2457 14.91370172449455
HUMSAT-D                
1 39433U 13066T   22058.03677046  .00001464  00000+0  14308-3 0  9991
2 39433  97.4564  75.0174 0028432 248.1642 111.6554 14.93542616449910
VELOX-PII               
1 39438U 13066Y   22057.86300195  .00000735  00000+0  10331-3 0  9996
2 39438  97.6780  25.4668 0071465  96.5717 264.3636 14.78508775444661
FIRST-MOVE              
1 39439U 13066Z   22057.87597524  .00002179  00000+0  26282-3 0  9998
2 39439  97.6263  36.5364 0065156  44.5528 316.0898 14.83294520445658
CUBEBUG-2 (LO-74)       
1 39440U 13066AA  22057.87893512  .00000711  00000+0  10368-3 0  9994
2 39440  97.7125  20.2094 0080498 129.4572 231.3797 14.76574914443965
NEE-02 KRYSAOR          
1 39441U 13066AB  22057.85837203  .00000544  00000+0  83089-4 0  9993
2 39441  97.7231  17.4307 0081954 142.1446 218.5567 14.75424630443723
FUNCUBE-1 (AO-73)       
1 39444U 13066AE  22057.94240186  .00001389  00000+0  17288-3 0  9999
2 39444  97.6127  36.9418 0058257  37.1489 323.3735 14.82858267445738
HINCUBE                 
1 39445U 13066AF  22058.18249905  .00001340  00000+0  16768-3 0  9994
2 39445  97.6143  37.0016 0058324  38.3985 322.1358 14.82675793445304
UWE-3                   
1 39446U 13066AG  22057.88846353  .00000914  00000+0  12498-3 0  9993
2 39446  97.6716  26.8556 0070818  89.7760 271.1567 14.79119178444118
AIST-1 (RS-41)          
1 39492U 13078C   22058.06098307  .00000625  00000+0  64816-4 0  9997
2 39492  82.4225 342.2326 0021218 109.8013 250.5476 14.88221331443362
SPROUT                  
1 39770U 14029E   22058.05955758  .00003324  00000+0  35466-3 0  9991
2 39770  97.9302 174.5331 0009615  91.0503 269.1787 14.89499546421221
UNISAT-6                
1 40012U 14033C   22057.78900530  .00000840  00000+0  12987-3 0  9997
2 40012  97.6630 251.6687 0058315 156.1660 204.2270 14.74592007413679
BUGSAT-1 (TITA)         
1 40014U 14033E   22057.93904583  .00002092  00000+0  18949-3 0  9993
2 40014  98.1353  51.9113 0032428  45.4220 314.9639 14.96174254419615
DUCHIFAT-1              
1 40021U 14033M   22057.84862110  .00002086  00000+0  21128-3 0  9996
2 40021  98.0003   6.2030 0013870  49.9900 310.2533 14.92003680418205
NANOSATC-BR1            
1 40024U 14033Q   22057.84062330  .00001820  00000+0  18975-3 0  9996
2 40024  97.9756   0.1230 0013374  55.6505 304.5976 14.90995173417492
QB50P1                  
1 40025U 14033R   22057.80130760  .00001307  00000+0  14160-3 0  9998
2 40025  97.9524 354.4526 0013727  64.4752 295.7883 14.89901739417281
DTUSAT-2                
1 40030U 14033W   22058.08498566  .00001163  00000+0  12820-3 0  9997
2 40030  97.9314 350.5043 0013152  60.5355 299.7172 14.89413605417727
QB50P2                  
1 40032U 14033Y   22057.78610839  .00001217  00000+0  13404-3 0  9993
2 40032  97.9319 350.2160 0013114  62.4684 297.7864 14.89378466417142
POLYITAN-1              
1 40042U 14033AJ  22057.81262823  .00001613  00000+0  17373-3 0  9993
2 40042  97.9625 355.5181 0015904  56.2466 304.0263 14.89805935417176
TIGRISAT                
1 40043U 14033AK  22058.11785365  .00000570  00000+0  90028-4 0  9999
2 40043  97.6584 253.3233 0060124 152.6974 207.7418 14.74757858413665
AISAT                   
1 40054U 14034B   22058.05160720  .00001393  00000+0  19612-3 0  9990
2 40054  98.3471 225.1800 0011786 311.6636  48.3565 14.78976107413159
CANX-4                  
1 40055U 14034C   22057.99216344  .00000367  00000+0  62416-4 0  9998
2 40055  98.3381 211.4522 0013961 354.4608   5.6443 14.75222267412462
CANX-5                  
1 40056U 14034D   22057.86257482  .00000368  00000+0  62509-4 0  9997
2 40056  98.3381 211.3010 0013985 355.1808   4.9263 14.75215566403220
VELOX-I                 
1 40057U 14034E   22058.02509488  .00001265  00000+0  18045-3 0  9995
2 40057  98.3524 226.2769 0010149 328.7765  31.2843 14.78606277413159
METEOR-M 2              
1 40069U 14037A   22058.24484779 -.00000019  00000+0  10519-4 0  9996
2 40069  98.4416  81.0277 0004587 287.0814  72.9873 14.20698123396215
DX1                     
1 40071U 14037C   22058.06421412  .00000451  00000+0  64783-4 0  9995
2 40071  98.4255 281.2149 0007634 318.4749  41.5885 14.81672697412997
UKUBE-1                 
1 40074U 14037F   22057.92672643  .00001086  00000+0  13450-3 0  9995
2 40074  98.3983 292.7447 0003487 296.4892  63.5956 14.84941125413667
FIREBIRD 3              
1 40377U 15003B   22058.13426840  .00006526  00000+0  21726-3 0  9994
2 40377  99.1136 258.7421 0109491  38.0630 322.8274 15.25964499391583
FIREBIRD 4              
1 40378U 15003C   22057.51033881  .00007460  00000+0  24715-3 0  9994
2 40378  99.1142 258.1692 0109536  39.8362 321.0847 15.26032929391487
GRIFEX                  
1 40379U 15003D   22058.05617321  .00005442  00000+0  20638-3 0  9990
2 40379  99.1180 245.8539 0122429  76.6704 284.8144 15.20660978390848
CP10 (EXOCUBE)          
1 40380U 15003E   22057.74370765  .00005380  00000+0  21728-3 0  9997
2 40380  99.1224 238.8175 0128915  99.8122 261.7690 15.17968167390357
DEORBITSAIL             
1 40719U 15032E   22057.89913380  .00001150  00000+0  16666-3 0  9993
2 40719  97.7985 299.8646 0016531   8.2652 351.8828 14.77847569357559
NUDT-PHONESAT           
1 40900U 15049B   22058.00280192  .00013856  00000+0  47338-3 0  9991
2 40900  97.4112  75.8284 0009352 329.4669  84.6358 15.30369975357693
XW-2A                   
1 40903U 15049E   22058.13276176  .00011689  00000+0  21793-3 0  9994
2 40903  97.2002 116.7773 0011867 156.4062 231.1079 15.48890263362164
XW-2C                   
1 40906U 15049H   22058.07929083  .00003403  00000+0  17139-3 0  9996
2 40906  97.4944  62.4833 0015132  29.7150  41.7640 15.17778281356171
XW-2D                   
1 40907U 15049J   22058.07654587  .00003942  00000+0  19544-3 0  9991
2 40907  97.4939  62.3836 0014363  26.4876  44.0592 15.18241232356211
LILACSAT-2              
1 40908U 15049K   22058.08478994  .00001796  00000+0  99341-4 0  9998
2 40908  97.5161  59.8351 0016736  43.7869  29.5086 15.15043362355770
XW-2E                   
1 40909U 15049L   22057.97271475  .00005964  00000+0  26926-3 0  9990
2 40909  97.4687  66.6117 0012891  10.4698  44.2172 15.21286005356601
XW-2F                   
1 40910U 15049M   22057.99399867  .00006016  00000+0  27552-3 0  9995
2 40910  97.4766  65.7445 0014090  10.4660  41.9920 15.20775945356382
XW-2B                   
1 40911U 15049N   22058.02892512  .00003822  00000+0  19010-3 0  9998
2 40911  97.4931  62.9711 0014339  27.5611  46.7951 15.18144510356093
KAITUO 1B               
1 40912U 15049P   22058.08161507  .00006757  00000+0  28503-3 0  9995
2 40912  97.4429  70.1981 0012809 338.3824  93.5746 15.23555268356932
TIANWANG 1A (TW-1A)     
1 40928U 15051D   22058.01539169  .00020044  00000+0  33846-3 0  9992
2 40928  97.0545  82.2495 0011034  77.1976 338.4262 15.51590475361078
LAPAN-A2                
1 40931U 15052B   22058.03037244  .00000842  00000+0  28107-4 0  9995
2 40931   5.9952 236.7367 0013174  43.9574 316.1530 14.76738043346994
LQSAT                   
1 40958U 15057A   22058.10895378  .00000184  00000+0  35795-4 0  9997
2 40958  97.7673 109.1775 0017263 320.4889  39.5073 14.73261842343735
ATHENOXAT 1             
1 41168U 15077C   22058.01507088  .00008423  00000+0  36735-3 0  9999
2 41168  14.9875 187.0535 0010214 128.1989  17.7476 15.17926962343483
GALASSIA                
1 41170U 15077E   22057.68981403  .00007143  00000+0  30677-3 0  9998
2 41170  14.9876 179.8344 0011515 154.0363 206.0537 15.17865002343357
VELOX-II                
1 41171U 15077F   22057.89791373  .00004393  00000+0  19817-3 0  9994
2 41171  14.9901 246.2079 0008436   7.9783 352.0672 15.13954358342889
CHUBUSAT-2              
1 41338U 16012B   22057.88641644  .00001132  00000+0  80045-4 0  9993
2 41338  31.0041   7.6440 0013459 136.8083 223.3610 15.00907322330857
CHUBUSAT-3              
1 41339U 16012C   22058.01943036  .00001246  00000+0  88549-4 0  9993
2 41339  31.0120   3.7897 0013072 145.1687 214.9807 15.01025010330875
HORYU-4                 
1 41340U 16012D   22058.12267901  .00001766  00000+0  12312-3 0  9998
2 41340  31.0056 343.2987 0013648 184.5417 175.5096 15.02520838331113
